[{"OBJECT_NAME":"LMRST-SAT","OBJECT_ID":"2015-058H","EPOCH":"2026-03-09T17:22:48.893664","MEAN_MOTION":14.89988841,"ECCENTRICITY":0.01310128,"INCLINATION":64.7755,"RA_OF_ASC_NODE":224.0879,"ARG_OF_PERICENTER":97.8444,"MEAN_ANOMALY":263.7563,"EPHEMERIS_TYPE":0,"CLASSIFICATION_TYPE":"U","NORAD_CAT_ID":40971,"ELEMENT_SET_NO":999,"REV_AT_EPOCH":9873,"BSTAR":0.00042420191,"MEAN_MOTION_DOT":4.653e-5,"MEAN_MOTION_DDOT":0},{"OBJECT_NAME":"TRANSPORTER-15 OBJECT DM","OBJECT_ID":"2025-276DM","EPOCH":"2026-03-09T22:43:55.888032","MEAN_MOTION":15.19567791,"ECCENTRICITY":0.00018743,"INCLINATION":97.4286,"RA_OF_ASC_NODE":144.3741,"ARG_OF_PERICENTER":156.2959,"MEAN_ANOMALY":203.8363,"EPHEMERIS_TYPE":0,"CLASSIFICATION_TYPE":"U","NORAD_CAT_ID":66773,"ELEMENT_SET_NO":999,"REV_AT_EPOCH":1536,"BSTAR":0.00033320961,"MEAN_MOTION_DOT":7.022e-5,"MEAN_MOTION_DDOT":0}]
